{
    "links": {
        "self": "http://www.neowsapp.com/rest/v1/neo/3797471?api_key=iIulBulltgU6a56xZRHN4H3l9WmuAYTsLGpBGhQ2"
    },
    "id": "3797471",
    "neo_reference_id": "3797471",
    "name": "(2018 AG3)",
    "designation": "2018 AG3",
    "nasa_jpl_url": "http://ssd.jpl.nasa.gov/sbdb.cgi?sstr=3797471",
    "absolute_magnitude_h": 26.0,
    "estimated_diameter": {
        "kilometers": {
            "estimated_diameter_min": 0.0167708462,
            "estimated_diameter_max": 0.0375007522
        },
        "meters": {
            "estimated_diameter_min": 16.7708462163,
            "estimated_diameter_max": 37.5007521798
        },
        "miles": {
            "estimated_diameter_min": 0.0104209175,
            "estimated_diameter_max": 0.0233018799
        },
        "feet": {
            "estimated_diameter_min": 55.0224631002,
            "estimated_diameter_max": 123.0339677816
        }
    },
    "is_potentially_hazardous_asteroid": false,
    "close_approach_data": [
        {
            "close_approach_date": "1980-07-05",
            "close_approach_date_full": "1980-Jul-05 05:43",
            "epoch_date_close_approach": 331623780000,
            "relative_velocity": {
                "kilometers_per_second": "19.9658548297",
                "kilometers_per_hour": "71877.0773867908",
                "miles_per_hour": "44661.6206684756"
            },
            "miss_distance": {
                "astronomical": "0.484508676",
                "lunar": "188.473874964",
                "kilometers": "72481465.92612012",
                "miles": "45037894.491572856"
            },
            "orbiting_body": "Earth"
        },
        {
            "close_approach_date": "1982-01-02",
            "close_approach_date_full": "1982-Jan-02 23:53",
            "epoch_date_close_approach": 378863580000,
            "relative_velocity": {
                "kilometers_per_second": "8.518259156",
                "kilometers_per_hour": "30665.7329616247",
                "miles_per_hour": "19054.4939060717"
            },
            "miss_distance": {
                "astronomical": "0.0808124906",
                "lunar": "31.4360588434",
                "kilometers": "12089376.463155022",
                "miles": "7511990.1985904236"
            },
            "orbiting_body": "Earth"
        },
        {
            "close_approach_date": "2017-12-31",
            "close_approach_date_full": "2017-Dec-31 12:41",
            "epoch_date_close_approach": 1514724060000,
            "relative_velocity": {
                "kilometers_per_second": "7.1221443348",
                "kilometers_per_hour": "25639.7196053112",
                "miles_per_hour": "15931.5246625335"
            },
            "miss_distance": {
                "astronomical": "0.0334304759",
                "lunar": "13.0044551251",
                "kilometers": "5001127.987726333",
                "miles": "3107556.8322480754"
            },
            "orbiting_body": "Earth"
        },
        {
            "close_approach_date": "2059-07-11",
            "close_approach_date_full": "2059-Jul-11 09:37",
            "epoch_date_close_approach": 2825141820000,
            "relative_velocity": {
                "kilometers_per_second": "17.152641821",
                "kilometers_per_hour": "61749.510555496",
                "miles_per_hour": "38368.7444893303"
            },
            "miss_distance": {
                "astronomical": "0.3884999678",
                "lunar": "151.1264874742",
                "kilometers": "58118767.677948586",
                "miles": "36113327.6378230468"
            },
            "orbiting_body": "Earth"
        }
    ],
    "orbital_data": {
        "orbit_id": "1",
        "orbit_determination_date": "2018-01-14 13:12:06",
        "first_observation_date": "2018-01-12",
        "last_observation_date": "2018-01-14",
        "data_arc_in_days": 2,
        "observations_used": 13,
        "orbit_uncertainty": "8",
        "minimum_orbit_intersection": ".016521",
        "jupiter_tisserand_invariant": "5.603",
        "epoch_osculation": "2458130.5",
        "eccentricity": ".2032345899656567",
        "semi_major_axis": "1.106064719341503",
        "inclination": "5.538560930552067",
        "ascending_node_longitude": "106.704904217793",
        "orbital_period": "424.8828840459895",
        "perihelion_distance": ".8812741096306536",
        "perihelion_argument": "281.2868514049051",
        "aphelion_distance": "1.330855329052353",
        "perihelion_time": "2458060.742808582011",
        "mean_anomaly": "59.1047318059483",
        "mean_motion": ".8472923092873599",
        "equinox": "J2000",
        "orbit_class": {
            "orbit_class_type": "APO",
            "orbit_class_description": "Near-Earth asteroid orbits which cross the Earth’s orbit similar to that of 1862 Apollo",
            "orbit_class_range": "a (semi-major axis) > 1.0 AU; q (perihelion) < 1.017 AU"
        }
    },
    "is_sentry_object": false
}